{"type": "FeatureCollection", "features": [ {"type": "Feature", "properties": {"norad_id": 57401, "name": "TIANMU-1 09", "group": "weather", "lat": -25.92419654163582, "lon": -139.4289813384178, "alt_km": 490.62908783184776, "timestamp": "2025-12-21T03:56:50.501562+00:00", "meta": {"OBJECT_NAME": "TIANMU-1 09", "OBJECT_ID": "2023-101C", "EPOCH": "2025-12-20T20:45:46.783584", "MEAN_MOTION": 15.28192985, "ECCENTRICITY": 0.0006477, "INCLINATION": 97.281, "RA_OF_ASC_NODE": 43.8417, "ARG_OF_PERICENTER": 61.6386, "MEAN_ANOMALY": 298.5506, "EPHEMERIS_TYPE": 0, "CLASSIFICATION_TYPE": "U", "NORAD_CAT_ID": 57401, "ELEMENT_SET_NO": 999, "REV_AT_EPOCH": 13439, "BSTAR": 0.00017817, "MEAN_MOTION_DOT": 4.825e-05, "MEAN_MOTION_DDOT": 0}, "tle": {"line1": "1 57401U 23101C   25354.86512481  .00004825  00000+0  17817-3 0  9993", "line2": "2 57401  97.2810  43.8417 0006477  61.6386 298.5506 15.28192985134392"}}, "geometry": {"type": "Point", "coordinates": [-139.4289813384178, -25.92419654163582]}}, {"type": "Feature", "properties": {"norad_id": 57402, "name": "TIANMU-1 10", "group": "weather", "lat": 17.337765803525556, "lon": 42.70287505686637, "alt_km": 477.585845751556, "timestamp": "2025-12-21T03:56:50.501572+00:00", "meta": {"OBJECT_NAME": "TIANMU-1 10", "OBJECT_ID": "2023-101D", "EPOCH": "2025-12-20T20:00:49.126752", "MEAN_MOTION": 15.28184025, "ECCENTRICITY": 0.000822, "INCLINATION": 97.2891, "RA_OF_ASC_NODE": 44.6696, "ARG_OF_PERICENTER": 60.1194, "MEAN_ANOMALY": 300.0861, "EPHEMERIS_TYPE": 0, "CLASSIFICATION_TYPE": "U", "NORAD_CAT_ID": 57402, "ELEMENT_SET_NO": 999, "REV_AT_EPOCH": 13438, "BSTAR": 0.00018351, "MEAN_MOTION_DOT": 4.972e-05, "MEAN_MOTION_DDOT": 0}, "tle": {"line1": "1 57402U 23101D   25354.83390193  .00004972  00000+0  18351-3 0  9992", "line2": "2 57402  97.2891  44.6696 0008220  60.1194 300.0861 15.28184025134387"}}, "geometry": {"type": "Point", "coordinates": [42.70287505686637, 17.337765803525556]}}, {"type": "Feature", "properties": {"norad_id": 57490, "name": "FENGYUN 3F", "group": "weather", "lat": -58.98875041130045, "lon": -131.44828491576342, "alt_km": 833.1237621654245, "timestamp": "2025-12-21T03:56:50.501582+00:00", "meta": {"OBJECT_NAME": "FENGYUN 3F", "OBJECT_ID": "2023-111A", "EPOCH": "2025-12-20T20:03:19.327968", "MEAN_MOTION": 14.198955, "ECCENTRICITY": 7.63e-05, "INCLINATION": 98.7073, "RA_OF_ASC_NODE": 62.9981, "ARG_OF_PERICENTER": 114.0346, "MEAN_ANOMALY": 246.0911, "EPHEMERIS_TYPE": 0, "CLASSIFICATION_TYPE": "U", "NORAD_CAT_ID": 57490, "ELEMENT_SET_NO": 999, "REV_AT_EPOCH": 12355, "BSTAR": 4.3637e-05, "MEAN_MOTION_DOT": 4.9e-07, "MEAN_MOTION_DDOT": 0}, "tle": {"line1": "1 57490U 23111A   25354.83564037  .00000049  00000+0  43637-4 0  9997", "line2": "2 57490  98.7073  62.9981 0000763 114.0346 246.0911 14.19895500123552"}}, "geometry": {"type": "Point", "coordinates": [-131.44828491576342, -58.98875041130045]}}, {"type": "Feature", "properties": {"norad_id": 58584, "name": "ARKTIKA-M 2", "group": "weather", "lat": 51.908661222525545, "lon": -46.16549209829568, "alt_km": 28223.492802210665, "timestamp": "2025-12-21T03:56:50.501593+00:00", "meta": {"OBJECT_NAME": "ARKTIKA-M 2", "OBJECT_ID": "2023-198A", "EPOCH": "2025-12-20T07:20:06.590112", "MEAN_MOTION": 2.00602824, "ECCENTRICITY": 0.68654675, "INCLINATION": 63.225, "RA_OF_ASC_NODE": 174.0676, "ARG_OF_PERICENTER": 268.0739, "MEAN_ANOMALY": 18.8406, "EPHEMERIS_TYPE": 0, "CLASSIFICATION_TYPE": "U", "NORAD_CAT_ID": 58584, "ELEMENT_SET_NO": 999, "REV_AT_EPOCH": 1473, "BSTAR": 0, "MEAN_MOTION_DOT": 2.01e-06, "MEAN_MOTION_DDOT": 0}, "tle": {"line1": "1 58584U 23198A   25354.30563183  .00000201  00000+0  00000+0 0  9992", "line2": "2 58584  63.2250 174.0676 6865467 268.0739  18.8406  2.00602824 14734"}}, "geometry": {"type": "Point", "coordinates": [-46.16549209829568, 51.908661222525545]}}, {"type": "Feature", "properties": {"norad_id": 58645, "name": "TIANMU-1 11", "group": "weather", "lat": 82.53124845011173, "lon": -84.99352441447793, "alt_km": 489.40952923055374, "timestamp": "2025-12-21T03:56:50.501604+00:00", "meta": {"OBJECT_NAME": "TIANMU-1 11", "OBJECT_ID": "2023-205A", "EPOCH": "2025-12-20T21:14:52.539648", "MEAN_MOTION": 15.24689576, "ECCENTRICITY": 0.0007532, "INCLINATION": 97.3595, "RA_OF_ASC_NODE": 14.3655, "ARG_OF_PERICENTER": 275.8241, "MEAN_ANOMALY": 84.2138, "EPHEMERIS_TYPE": 0, "CLASSIFICATION_TYPE": "U", "NORAD_CAT_ID": 58645, "ELEMENT_SET_NO": 999, "REV_AT_EPOCH": 11033, "BSTAR": 0.00017065, "MEAN_MOTION_DOT": 4.15e-05, "MEAN_MOTION_DDOT": 0}, "tle": {"line1": "1 58645U 23205A   25354.88533032  .00004150  00000+0  17065-3 0  9992", "line2": "2 58645  97.3595  14.3655 0007532 275.8241  84.2138 15.24689576110335"}}, "geometry": {"type": "Point", "coordinates": [-84.99352441447793, 82.53124845011173]}}, {"type": "Feature", "properties": {"norad_id": 58646, "name": "TIANMU-1 12", "group": "weather", "lat": -59.26931164655277, "lon": 26.997415660846336, "alt_km": 496.4721027215355, "timestamp": "2025-12-21T03:56:50.501613+00:00", "meta": {"OBJECT_NAME": "TIANMU-1 12", "OBJECT_ID": "2023-205B", "EPOCH": "2025-12-20T20:20:03.577632", "MEAN_MOTION": 15.2457443, "ECCENTRICITY": 0.0005825, "INCLINATION": 97.3582, "RA_OF_ASC_NODE": 14.1309, "ARG_OF_PERICENTER": 254.4813, "MEAN_ANOMALY": 105.5782, "EPHEMERIS_TYPE": 0, "CLASSIFICATION_TYPE": "U", "NORAD_CAT_ID": 58646, "ELEMENT_SET_NO": 999, "REV_AT_EPOCH": 11031, "BSTAR": 0.00017096, "MEAN_MOTION_DOT": 4.142e-05, "MEAN_MOTION_DDOT": 0}, "tle": {"line1": "1 58646U 23205B   25354.84726363  .00004142  00000+0  17096-3 0  9995", "line2": "2 58646  97.3582  14.1309 0005825 254.4813 105.5782 15.24574430110319"}}, "geometry": {"type": "Point", "coordinates": [26.997415660846336, -59.26931164655277]}}, {"type": "Feature", "properties": {"norad_id": 58647, "name": "TIANMU-1 13", "group": "weather", "lat": 61.87302724407713, "lon": -151.35792288750343, "alt_km": 487.6047093376392, "timestamp": "2025-12-21T03:56:50.501622+00:00", "meta": {"OBJECT_NAME": "TIANMU-1 13", "OBJECT_ID": "2023-205C", "EPOCH": "2025-12-20T19:33:31.711968", "MEAN_MOTION": 15.24617045, "ECCENTRICITY": 0.0006304, "INCLINATION": 97.361, "RA_OF_ASC_NODE": 14.3036, "ARG_OF_PERICENTER": 231.0657, "MEAN_ANOMALY": 129.0019, "EPHEMERIS_TYPE": 0, "CLASSIFICATION_TYPE": "U", "NORAD_CAT_ID": 58647, "ELEMENT_SET_NO": 999, "REV_AT_EPOCH": 11030, "BSTAR": 0.00017508, "MEAN_MOTION_DOT": 4.249e-05, "MEAN_MOTION_DDOT": 0}, "tle": {"line1": "1 58647U 23205C   25354.81495037  .00004249  00000+0  17508-3 0  9990", "line2": "2 58647  97.3610  14.3036 0006304 231.0657 129.0019 15.24617045110304"}}, "geometry": {"type": "Point", "coordinates": [-151.35792288750343, 61.87302724407713]}}, {"type": "Feature", "properties": {"norad_id": 58648, "name": "TIANMU-1 14", "group": "weather", "lat": -27.602395271941607, "lon": -169.88398639634218, "alt_km": 493.58828439194895, "timestamp": "2025-12-21T03:56:50.501633+00:00", "meta": {"OBJECT_NAME": "TIANMU-1 14", "OBJECT_ID": "2023-205D", "EPOCH": "2025-12-20T20:44:15.754272", "MEAN_MOTION": 15.24601033, "ECCENTRICITY": 0.0007051, "INCLINATION": 97.3542, "RA_OF_ASC_NODE": 13.6931, "ARG_OF_PERICENTER": 237.1242, "MEAN_ANOMALY": 122.9318, "EPHEMERIS_TYPE": 0, "CLASSIFICATION_TYPE": "U", "NORAD_CAT_ID": 58648, "ELEMENT_SET_NO": 999, "REV_AT_EPOCH": 11031, "BSTAR": 0.0001786, "MEAN_MOTION_DOT": 4.335e-05, "MEAN_MOTION_DDOT": 0}, "tle": {"line1": "1 58648U 23205D   25354.86407123  .00004335  00000+0  17860-3 0  9992", "line2": "2 58648  97.3542  13.6931 0007051 237.1242 122.9318 15.24601033110317"}}, "geometry": {"type": "Point", "coordinates": [-169.88398639634218, -27.602395271941607]}}, {"type": "Feature", "properties": {"norad_id": 58660, "name": "TIANMU-1 19", "group": "weather", "lat": -24.544437725171687, "lon": -77.23526620876261, "alt_km": 484.45910230260415, "timestamp": "2025-12-21T03:56:50.501642+00:00", "meta": {"OBJECT_NAME": "TIANMU-1 19", "OBJECT_ID": "2023-208A", "EPOCH": "2025-12-20T19:11:44.636352", "MEAN_MOTION": 15.27984775, "ECCENTRICITY": 0.0004491, "INCLINATION": 97.4396, "RA_OF_ASC_NODE": 105.8218, "ARG_OF_PERICENTER": 217.4799, "MEAN_ANOMALY": 142.6128, "EPHEMERIS_TYPE": 0, "CLASSIFICATION_TYPE": "U", "NORAD_CAT_ID": 58660, "ELEMENT_SET_NO": 999, "REV_AT_EPOCH": 11005, "BSTAR": 0.00023841, "MEAN_MOTION_DOT": 6.436e-05, "MEAN_MOTION_DDOT": 0}, "tle": {"line1": "1 58660U 23208A   25354.79982218  .00006436  00000+0  23841-3 0  9994", "line2": "2 58660  97.4396 105.8218 0004491 217.4799 142.6128 15.27984775110053"}}, "geometry": {"type": "Point", "coordinates": [-77.23526620876261, -24.544437725171687]}}, {"type": "Feature", "properties": {"norad_id": 58661, "name": "TIANMU-1 20", "group": "weather", "lat": -44.59487191015254, "lon": 114.03751928000582, "alt_km": 484.58043553696916, "timestamp": "2025-12-21T03:56:50.501651+00:00", "meta": {"OBJECT_NAME": "TIANMU-1 20", "OBJECT_ID": "2023-208B", "EPOCH": "2025-12-20T20:17:30.467328", "MEAN_MOTION": 15.29176069, "ECCENTRICITY": 0.0006588, "INCLINATION": 97.4332, "RA_OF_ASC_NODE": 106.3229, "ARG_OF_PERICENTER": 231.9114, "MEAN_ANOMALY": 128.1532, "EPHEMERIS_TYPE": 0, "CLASSIFICATION_TYPE": "U", "NORAD_CAT_ID": 58661, "ELEMENT_SET_NO": 999, "REV_AT_EPOCH": 11013, "BSTAR": 0.00023057, "MEAN_MOTION_DOT": 6.456e-05, "MEAN_MOTION_DDOT": 0}, "tle": {"line1": "1 58661U 23208B   25354.84549152  .00006456  00000+0  23057-3 0  9998", "line2": "2 58661  97.4332 106.3229 0006588 231.9114 128.1532 15.29176069110131"}}, "geometry": {"type": "Point", "coordinates": [114.03751928000582, -44.59487191015254]}}]}